{
  "type": "FeatureCollection",
  "name": "Kukatpally_Sensor_Network",
  "crs": {
    "type": "name",
    "properties": {
      "name": "urn:ogc:def:crs:OGC:1.3:CRS84"
    }
  },
  "features": [
    {
      "type": "Feature",
      "properties": {
        "id": 1,
        "name": "Kukatpally_Rain_01",
        "type": "rain_gauge",
        "icon": "cloud-rain",
        "color": "#3498db",
        "location": "KPHB Colony",
        "status": "active",
        "installed_date": "2023-06-15",
        "elevation_m": 542,
        "description": "Tipping bucket rain gauge - 0.2mm resolution"
      },
      "geometry": {
        "type": "Point",
        "coordinates": [78.3996, 17.4947]
      }
    },
    {
      "type": "Feature",
      "properties": {
        "id": 2,
        "name": "Kukatpally_Rain_02",
        "type": "rain_gauge",
        "icon": "cloud-rain",
        "color": "#3498db",
        "location": "Kukatpally Bus Stand",
        "status": "active",
        "installed_date": "2023-06-15",
        "elevation_m": 538,
        "description": "Tipping bucket rain gauge - 0.2mm resolution"
      },
      "geometry": {
        "type": "Point",
        "coordinates": [78.4150, 17.4850]
      }
    },
    {
      "type": "Feature",
      "properties": {
        "id": 3,
        "name": "Kukatpally_Rain_03",
        "type": "rain_gauge",
        "icon": "cloud-rain",
        "color": "#3498db",
        "location": "Miyapur Junction",
        "status": "active",
        "installed_date": "2023-06-20",
        "elevation_m": 556,
        "description": "Tipping bucket rain gauge - 0.2mm resolution"
      },
      "geometry": {
        "type": "Point",
        "coordinates": [78.3850, 17.5050]
      }
    },
    {
      "type": "Feature",
      "properties": {
        "id": 4,
        "name": "Kukatpally_Rain_04",
        "type": "rain_gauge",
        "icon": "cloud-rain",
        "color": "#3498db",
        "location": "Moosapet Area",
        "status": "active",
        "installed_date": "2023-06-20",
        "elevation_m": 535,
        "description": "Tipping bucket rain gauge - 0.2mm resolution"
      },
      "geometry": {
        "type": "Point",
        "coordinates": [78.4250, 17.4750]
      }
    },
    {
      "type": "Feature",
      "properties": {
        "id": 5,
        "name": "Nala_Stage_01_Upstream",
        "type": "water_level",
        "icon": "water",
        "color": "#9b59b6",
        "location": "Upstream - Miyapur",
        "status": "active",
        "installed_date": "2023-07-01",
        "zero_level_m": 0.0,
        "danger_level_m": 2.5,
        "description": "Ultrasonic water level sensor - 1cm accuracy"
      },
      "geometry": {
        "type": "Point",
        "coordinates": [78.3800, 17.5100]
      }
    },
    {
      "type": "Feature",
      "properties": {
        "id": 6,
        "name": "Nala_Stage_02_Middle",
        "type": "water_level",
        "icon": "water",
        "color": "#9b59b6",
        "location": "Mid-stream - KPHB",
        "status": "active",
        "installed_date": "2023-07-01",
        "zero_level_m": 0.0,
        "danger_level_m": 2.5,
        "description": "Ultrasonic water level sensor - 1cm accuracy"
      },
      "geometry": {
        "type": "Point",
        "coordinates": [78.4000, 17.4900]
      }
    },
    {
      "type": "Feature",
      "properties": {
        "id": 7,
        "name": "Nala_Stage_03_Downstream",
        "type": "water_level",
        "icon": "water",
        "color": "#9b59b6",
        "location": "Downstream - Erragadda",
        "status": "active",
        "installed_date": "2023-07-01",
        "zero_level_m": 0.0,
        "danger_level_m": 2.5,
        "description": "Ultrasonic water level sensor - 1cm accuracy"
      },
      "geometry": {
        "type": "Point",
        "coordinates": [78.4200, 17.4700]
      }
    }
  ]
}
