{
  "type": "FeatureCollection",
  "name": "Kukatpally_Nala_Stream_Network",
  "crs": {
    "type": "name",
    "properties": {
      "name": "urn:ogc:def:crs:OGC:1.3:CRS84"
    }
  },
  "features": [
    {
      "type": "Feature",
      "properties": {
        "id": 1,
        "name": "Kukatpally Nala - Main Channel",
        "stream_order": 4,
        "length_km": 18.5,
        "type": "main_channel",
        "description": "Primary drainage channel through Kukatpally"
      },
      "geometry": {
        "type": "LineString",
        "coordinates": [
          [78.31, 17.53],
          [78.33, 17.52],
          [78.35, 17.51],
          [78.37, 17.505],
          [78.39, 17.50],
          [78.40, 17.495],
          [78.41, 17.49],
          [78.42, 17.48],
          [78.43, 17.47],
          [78.44, 17.46],
          [78.445, 17.45]
        ]
      }
    },
    {
      "type": "Feature",
      "properties": {
        "id": 2,
        "name": "Miyapur Tributary",
        "stream_order": 2,
        "length_km": 5.2,
        "type": "tributary",
        "description": "Northern tributary from Miyapur area"
      },
      "geometry": {
        "type": "LineString",
        "coordinates": [
          [78.36, 17.54],
          [78.355, 17.53],
          [78.35, 17.52],
          [78.35, 17.51]
        ]
      }
    },
    {
      "type": "Feature",
      "properties": {
        "id": 3,
        "name": "KPHB Tributary",
        "stream_order": 2,
        "length_km": 4.8,
        "type": "tributary",
        "description": "Eastern tributary from KPHB Colony"
      },
      "geometry": {
        "type": "LineString",
        "coordinates": [
          [78.42, 17.52],
          [78.41, 17.51],
          [78.40, 17.505],
          [78.39, 17.50]
        ]
      }
    },
    {
      "type": "Feature",
      "properties": {
        "id": 4,
        "name": "Balanagar Tributary",
        "stream_order": 2,
        "length_km": 4.1,
        "type": "tributary",
        "description": "Western tributary from Balanagar industrial area"
      },
      "geometry": {
        "type": "LineString",
        "coordinates": [
          [78.35, 17.47],
          [78.37, 17.475],
          [78.39, 17.48],
          [78.40, 17.485]
        ]
      }
    },
    {
      "type": "Feature",
      "properties": {
        "id": 5,
        "name": "Erragadda Channel",
        "stream_order": 3,
        "length_km": 3.5,
        "type": "secondary",
        "description": "Secondary channel near Erragadda"
      },
      "geometry": {
        "type": "LineString",
        "coordinates": [
          [78.43, 17.44],
          [78.435, 17.455],
          [78.44, 17.46]
        ]
      }
    }
  ]
}
