{
  "type": "FeatureCollection",
  "name": "Kukatpally_Nala_Watershed",
  "crs": {
    "type": "name",
    "properties": {
      "name": "urn:ogc:def:crs:OGC:1.3:CRS84"
    }
  },
  "features": [
    {
      "type": "Feature",
      "properties": {
        "id": 1,
        "name": "Kukatpally Nala Sub-Catchment",
        "area_km2": 167,
        "runoff_coeff": 0.9,
        "land_use": "Urban/Mixed",
        "district": "Medchal-Malkajgiri",
        "city": "Hyderabad",
        "state": "Telangana"
      },
      "geometry": {
        "type": "Polygon",
        "coordinates": [
          [
            [78.32, 17.55],
            [78.35, 17.56],
            [78.38, 17.555],
            [78.41, 17.54],
            [78.44, 17.52],
            [78.46, 17.50],
            [78.47, 17.48],
            [78.465, 17.46],
            [78.45, 17.44],
            [78.43, 17.43],
            [78.40, 17.42],
            [78.37, 17.43],
            [78.34, 17.44],
            [78.32, 17.46],
            [78.30, 17.48],
            [78.29, 17.50],
            [78.295, 17.52],
            [78.31, 17.54],
            [78.32, 17.55]
          ]
        ]
      }
    }
  ]
}
